HST                     
1 20580U 90037B   26171.07700591  .00005529  00000+0  17304-3 0  9998
2 20580  28.4722  60.8244 0001639 173.2571 186.8048 15.30775367789015
POLAR                   
1 23802U 96013A   26170.34772246  .00000090  00000+0  00000+0 0  9992
2 23802  79.8568 227.0270 6472584 209.0042  89.9942  1.29846125144887
SWAS                    
1 25560U 98071A   26171.19618053  .00002151  00000+0  13987-3 0  9992
2 25560  69.8943 219.7593 0008686 256.7201 103.2995 15.09638830497727
CXO                     
1 25867U 99040B   26172.02247085  .00000453  00000+0  00000+0 0  9996
2 25867  56.2474 116.4966 7828329 310.2765   0.2930  0.37807394 17333
XMM-NEWTON              
1 25989U 99066A   26171.34141683 -.00000033  00000+0  00000+0 0  9995
2 25989  64.4680 282.9447 4672330  64.8598   0.1279  0.50127883 23013
TERRA                   
1 25994U 99068A   26171.23828499  .00000272  00000+0  64372-4 0  9999
2 25994  97.9454 220.6636 0001826 179.4678 252.6566 14.61105119410054
CLUSTER II-FM7 (SAMBA)  
1 26410U 00041A   26172.60119800  .00004700  00000+0  00000+0 0  9990
2 26410 149.9156  51.6296 9060156 268.8489 359.5243  0.44827446 20328
CLUSTER II-FM8 (TANGO)  
1 26464U 00045B   26170.68963629  .00004777  00000+0  00000+0 0  9999
2 26464 150.1490  52.4920 9063460 269.5316   2.6305  0.44409240 20326
ODIN                    
1 26702U 01007A   26171.07824256  .00171166  00000+0  10523-2 0  9990
2 26702  97.3813 212.2073 0006749 140.3393 219.8368 15.76711423389853
TIMED                   
1 26998U 01055B   26171.28650901  .00000706  00000+0  67640-4 0  9992
2 26998  74.0670 228.7782 0001285 331.1920  28.9193 14.95299445331282
CORIOLIS                
1 27640U 03001A   26171.01578316  .00000066  00000+0  51745-4 0  9998
2 27640  98.7125 177.8574 0013539 200.2755 159.7885 14.19945493214621
SORCE                   
1 27651U 03004A   26170.66327517  .00001927  00000+0  14867-3 0  9998
2 27651  39.9899 247.5513 0016211  68.1416 292.1100 15.03723045272279
MOST                    
1 27843U 03031D   26170.95675851  .00000033  00000+0  35330-4 0  9996
2 27843  98.7044 178.6441 0008806 241.4878 118.5413 14.21322901191105
SCISAT 1                
1 27858U 03036A   26170.92682032  .00000386  00000+0  53987-4 0  9992
2 27858  73.9283 165.8994 0008465 235.8404 124.1970 14.81449796231851
SWIFT                   
1 28485U 04047A   26171.30342134  .00046405  00000+0  38117-3 0  9990
2 28485  20.5515 160.8559 0001491 338.7604  21.2780 15.68583947187357
HINODE (SOLAR-B)        
1 29479U 06041A   26171.31943333  .00000466  00000+0  88550-4 0  9993
2 29479  98.0544 187.4258 0015954 278.9600  80.9800 14.68626355 55331
SHIJIAN-6 02A (SJ-6 02A)
1 29505U 06046A   26171.25782756  .00004811  00000+0  24712-3 0  9998
2 29505  97.6351 212.3475 0004462 119.0203 241.1477 15.16970919 72733
SHIJIAN-6 02B (SJ-6 02B)
1 29506U 06046B   26171.34544475  .00000751  00000+0  62877-4 0  9997
2 29506  97.7154 200.3851 0015420  51.5078 308.7526 15.01382720 71215
FGRST (GLAST)           
1 33053U 08029A   26171.24058479  .00002090  00000+0  70449-4 0  9997
2 33053  25.5800 183.2798 0008039   5.0591 355.0027 15.23956287996301
SDO                     
1 36395U 10005A   26170.38591488 -.00000089  00000+0  00000+0 0  9990
2 36395  34.6572  86.3078 0001831  48.8927 169.2237  1.00270271 60082
CRYOSAT 2               
1 36508U 10013A   26171.25183574  .00000179  00000+0  43612-4 0  9995
2 36508  92.0358 278.0464 0002135  90.9579 269.1873 14.51900192858528
X-SAT                   
1 37389U 11015C   26171.24435360  .00000187  00000+0  97152-4 0  9995
2 37389  98.3516 148.1227 0013699 339.5446  20.5185 14.25207479788118
GCOM-W1 (SHIZUKU)       
1 38337U 12025A   26170.83883991  .00000335  00000+0  84369-4 0  9993
2 38337  98.2020 111.3542 0001774  73.8915 298.1495 14.57126615749428
NUSTAR                  
1 38358U 12031A   26171.33336806  .00001738  00000+0  54576-4 0  9992
2 38358   6.0285  10.5465 0007239 165.4932 138.8913 15.08831591  1300
NEOSSAT                 
1 39089U 13009D   26171.20603481  .00000099  00000+0  49128-4 0  9998
2 39089  98.4179 351.1668 0010002 233.7381 126.2881 14.35827293697171
BRITE-AUSTRIA           
1 39091U 13009F   26170.29768615  .00000120  00000+0  55501-4 0  9997
2 39091  98.3996 349.6811 0009231 229.4697 130.5686 14.36542792697356
IRIS                    
1 39197U 13033A   26170.52181357  .00000738  00000+0  90715-4 0  9990
2 39197  97.9329   9.7915 0023380 313.8607  46.0676 14.85888859700724
HISAKI (SPRINT-A)       
1 39253U 13049A   26171.07488197  .00000099  00000+0  50011-4 0  9998
2 39253  29.7175 205.3310 0136849  40.2630 320.7988 13.55544941631812
CASSIOPE                
1 39265U 13055A   26171.24520318  .00046724 -44193-6  50857-3 0  9990
2 39265  80.9141  63.0075 0291711  52.1969 310.5289 15.25456799668139
STSAT-3                 
1 39422U 13066G   26171.24230791  .00002726  00000+0  20808-3 0  9998
2 39422  97.6227 141.0816 0011020  36.9971 323.2012 15.02772115684669
SWARM B                 
1 39451U 13067A   26171.27624722  .00002808  00000+0  99834-4 0  9992
2 39451  87.7443 341.3777 0003218  84.0297 276.1319 15.28567119683712
